{"fetched_at":"2026-07-22T07:09:53.946Z","source":"https://celestrak.org/NORAD/elements/gp.php?NAME=LEGION&FORMAT=JSON","constellation":"maxar-legion","records":[{"OBJECT_NAME":"LEGION 1","OBJECT_ID":"2024-081A","EPOCH":"2026-07-21T12:46:04.170144","CLASSIFICATION_TYPE":"U","MEAN_MOTION":15.16871034,"ECCENTRICITY":0.00078923,"INCLINATION":97.5002,"RA_OF_ASC_NODE":280.025,"ARG_OF_PERICENTER":243.1889,"MEAN_ANOMALY":116.8537,"EPHEMERIS_TYPE":0,"NORAD_CAT_ID":59625,"ELEMENT_SET_NO":999,"REV_AT_EPOCH":12274,"BSTAR":0.00013961439,"MEAN_MOTION_DOT":0.00002682,"MEAN_MOTION_DDOT":0},{"OBJECT_NAME":"LEGION 2","OBJECT_ID":"2024-081B","EPOCH":"2026-07-21T15:04:57.073440","CLASSIFICATION_TYPE":"U","MEAN_MOTION":15.1685148,"ECCENTRICITY":0.00107383,"INCLINATION":97.5003,"RA_OF_ASC_NODE":280.2171,"ARG_OF_PERICENTER":208.925,"MEAN_ANOMALY":151.1389,"EPHEMERIS_TYPE":0,"NORAD_CAT_ID":59626,"ELEMENT_SET_NO":999,"REV_AT_EPOCH":12276,"BSTAR":0.00016535092,"MEAN_MOTION_DOT":0.0000319,"MEAN_MOTION_DDOT":0},{"OBJECT_NAME":"LEGION 3","OBJECT_ID":"2024-146A","EPOCH":"2026-07-21T09:36:15.907104","CLASSIFICATION_TYPE":"U","MEAN_MOTION":15.15678198,"ECCENTRICITY":0.00075802,"INCLINATION":45.0013,"RA_OF_ASC_NODE":207.1286,"ARG_OF_PERICENTER":8.366,"MEAN_ANOMALY":351.7343,"EPHEMERIS_TYPE":0,"NORAD_CAT_ID":60452,"ELEMENT_SET_NO":999,"REV_AT_EPOCH":10721,"BSTAR":0.00011040816,"MEAN_MOTION_DOT":0.00001874,"MEAN_MOTION_DDOT":0},{"OBJECT_NAME":"LEGION 4","OBJECT_ID":"2024-146B","EPOCH":"2026-07-21T14:20:25.769472","CLASSIFICATION_TYPE":"U","MEAN_MOTION":15.1571174,"ECCENTRICITY":0.00094363,"INCLINATION":45.0021,"RA_OF_ASC_NODE":297.938,"ARG_OF_PERICENTER":153.0894,"MEAN_ANOMALY":207.0476,"EPHEMERIS_TYPE":0,"NORAD_CAT_ID":60453,"ELEMENT_SET_NO":999,"REV_AT_EPOCH":10609,"BSTAR":0.00018597802,"MEAN_MOTION_DOT":0.00003343,"MEAN_MOTION_DDOT":0},{"OBJECT_NAME":"LEGION 5","OBJECT_ID":"2025-025A","EPOCH":"2026-07-21T11:10:35.774976","CLASSIFICATION_TYPE":"U","MEAN_MOTION":15.15729499,"ECCENTRICITY":0.00077261,"INCLINATION":45.0013,"RA_OF_ASC_NODE":117.602,"ARG_OF_PERICENTER":321.3726,"MEAN_ANOMALY":38.6599,"EPHEMERIS_TYPE":0,"NORAD_CAT_ID":62900,"ELEMENT_SET_NO":999,"REV_AT_EPOCH":7969,"BSTAR":0.00015974347,"MEAN_MOTION_DOT":0.00002835,"MEAN_MOTION_DDOT":0},{"OBJECT_NAME":"LEGION 6","OBJECT_ID":"2025-025B","EPOCH":"2026-07-21T12:44:18.859776","CLASSIFICATION_TYPE":"U","MEAN_MOTION":15.157199,"ECCENTRICITY":0.00105951,"INCLINATION":45.0022,"RA_OF_ASC_NODE":26.4002,"ARG_OF_PERICENTER":308.7615,"MEAN_ANOMALY":51.2316,"EPHEMERIS_TYPE":0,"NORAD_CAT_ID":62901,"ELEMENT_SET_NO":999,"REV_AT_EPOCH":8084,"BSTAR":0.00017162092,"MEAN_MOTION_DOT":0.00003066,"MEAN_MOTION_DDOT":0}]}
